{
    "links": {
        "self": "http://www.neowsapp.com/rest/v1/neo/3825006?api_key=iIulBulltgU6a56xZRHN4H3l9WmuAYTsLGpBGhQ2"
    },
    "id": "3825006",
    "neo_reference_id": "3825006",
    "name": "(2018 KQ1)",
    "designation": "2018 KQ1",
    "nasa_jpl_url": "http://ssd.jpl.nasa.gov/sbdb.cgi?sstr=3825006",
    "absolute_magnitude_h": 23.5,
    "estimated_diameter": {
        "kilometers": {
            "estimated_diameter_min": 0.0530340723,
            "estimated_diameter_max": 0.1185877909
        },
        "meters": {
            "estimated_diameter_min": 53.0340723319,
            "estimated_diameter_max": 118.5877908577
        },
        "miles": {
            "estimated_diameter_min": 0.0329538346,
            "estimated_diameter_max": 0.0736870142
        },
        "feet": {
            "estimated_diameter_min": 173.9963058693,
            "estimated_diameter_max": 389.0675677576
        }
    },
    "is_potentially_hazardous_asteroid": false,
    "close_approach_data": [
        {
            "close_approach_date": "2018-06-02",
            "close_approach_date_full": "2018-Jun-02 14:25",
            "epoch_date_close_approach": 1527949500000,
            "relative_velocity": {
                "kilometers_per_second": "11.1789918794",
                "kilometers_per_hour": "40244.3707656643",
                "miles_per_hour": "25006.2869349207"
            },
            "miss_distance": {
                "astronomical": "0.0812245902",
                "lunar": "31.5963655878",
                "kilometers": "12151025.685542874",
                "miles": "7550297.2490607012"
            },
            "orbiting_body": "Earth"
        }
    ],
    "orbital_data": {
        "orbit_id": "10",
        "orbit_determination_date": "2018-06-19 06:29:59",
        "first_observation_date": "2018-05-19",
        "last_observation_date": "2018-06-13",
        "data_arc_in_days": 25,
        "observations_used": 67,
        "orbit_uncertainty": "7",
        "minimum_orbit_intersection": ".0775902",
        "jupiter_tisserand_invariant": "4.127",
        "epoch_osculation": "2459000.5",
        "eccentricity": ".4203208637675208",
        "semi_major_axis": "1.666543009476859",
        "inclination": "11.83841515415129",
        "ascending_node_longitude": "236.9341873726893",
        "orbital_period": "785.8202502999119",
        "perihelion_distance": ".9660602122278221",
        "perihelion_argument": "62.73188061161753",
        "aphelion_distance": "2.367025806725896",
        "perihelion_time": "2459098.042544453499",
        "mean_anomaly": "315.3138061918644",
        "mean_motion": ".4581200342732378",
        "equinox": "J2000",
        "orbit_class": {
            "orbit_class_type": "APO",
            "orbit_class_description": "Near-Earth asteroid orbits which cross the Earth’s orbit similar to that of 1862 Apollo",
            "orbit_class_range": "a (semi-major axis) > 1.0 AU; q (perihelion) < 1.017 AU"
        }
    },
    "is_sentry_object": false
}